STARLINK-1597
1 46142U 20057AB  26061.12932572  .00117442  00000+0  17458-2 0  9992
2 46142  53.0513 333.4105 0008374 115.0816 245.1064 15.54276499305168
STARLINK-1995
1 47590U 21009AU  26061.12676810  .00113780  00000+0  16942-2 0  9996
2 47590  53.0472  55.9715 0007644  41.9755 318.1839 15.54253703279659
